<?xml version="1.0" encoding="UTF-8"?>
<ndm xmlns:xsi="http://www.w3.org/2001/XMLSchema-instance" xsi:noNamespaceSchemaLocation="https://sanaregistry.org/r/ndmxml_unqualified/ndmxml-2.0.0-master-2.0.xsd">
<omm id="CCSDS_OMM_VERS" version="2.0">
<header><CREATION_DATE/><ORIGINATOR/></header><body><segment><metadata><OBJECT_NAME>KUIPER-00053</OBJECT_NAME><OBJECT_ID>2025-134P</OBJECT_ID><CENTER_NAME>EARTH</CENTER_NAME><REF_FRAME>TEME</REF_FRAME><TIME_SYSTEM>UTC</TIME_SYSTEM><MEAN_ELEMENT_THEORY>SGP4</MEAN_ELEMENT_THEORY></metadata><data><meanElements><EPOCH>2025-10-16T06:58:56.681184</EPOCH><MEAN_MOTION>14.95602510</MEAN_MOTION><ECCENTRICITY>.0003086</ECCENTRICITY><INCLINATION>51.8948</INCLINATION><RA_OF_ASC_NODE>141.9302</RA_OF_ASC_NODE><ARG_OF_PERICENTER>176.8149</ARG_OF_PERICENTER><MEAN_ANOMALY>183.2840</MEAN_ANOMALY></meanElements><tleParameters><EPHEMERIS_TYPE>0</EPHEMERIS_TYPE><CLASSIFICATION_TYPE>U</CLASSIFICATION_TYPE><NORAD_CAT_ID>64513</NORAD_CAT_ID><ELEMENT_SET_NO>999</ELEMENT_SET_NO><REV_AT_EPOCH>1882</REV_AT_EPOCH><BSTAR>.49311E-3</BSTAR><MEAN_MOTION_DOT>.5283E-4</MEAN_MOTION_DOT><MEAN_MOTION_DDOT>0</MEAN_MOTION_DDOT></tleParameters></data></segment></body></omm>
<omm id="CCSDS_OMM_VERS" version="2.0">
<header><CREATION_DATE/><ORIGINATOR/></header><body><segment><metadata><OBJECT_NAME>KUIPER-00054</OBJECT_NAME><OBJECT_ID>2025-134Q</OBJECT_ID><CENTER_NAME>EARTH</CENTER_NAME><REF_FRAME>TEME</REF_FRAME><TIME_SYSTEM>UTC</TIME_SYSTEM><MEAN_ELEMENT_THEORY>SGP4</MEAN_ELEMENT_THEORY></metadata><data><meanElements><EPOCH>2025-10-17T04:00:01.998720</EPOCH><MEAN_MOTION>15.08406833</MEAN_MOTION><ECCENTRICITY>.0006744</ECCENTRICITY><INCLINATION>51.8844</INCLINATION><RA_OF_ASC_NODE>134.8441</RA_OF_ASC_NODE><ARG_OF_PERICENTER>174.3695</ARG_OF_PERICENTER><MEAN_ANOMALY>332.2553</MEAN_ANOMALY></meanElements><tleParameters><EPHEMERIS_TYPE>0</EPHEMERIS_TYPE><CLASSIFICATION_TYPE>U</CLASSIFICATION_TYPE><NORAD_CAT_ID>64514</NORAD_CAT_ID><ELEMENT_SET_NO>999</ELEMENT_SET_NO><REV_AT_EPOCH>210</REV_AT_EPOCH><BSTAR>-.82453E-1</BSTAR><MEAN_MOTION_DOT>-.1191971E-1</MEAN_MOTION_DOT><MEAN_MOTION_DDOT>0</MEAN_MOTION_DDOT></tleParameters></data></segment></body></omm>
<omm id="CCSDS_OMM_VERS" version="2.0">
<header><CREATION_DATE/><ORIGINATOR/></header><body><segment><metadata><OBJECT_NAME>KUIPER-00055</OBJECT_NAME><OBJECT_ID>2025-134R</OBJECT_ID><CENTER_NAME>EARTH</CENTER_NAME><REF_FRAME>TEME</REF_FRAME><TIME_SYSTEM>UTC</TIME_SYSTEM><MEAN_ELEMENT_THEORY>SGP4</MEAN_ELEMENT_THEORY></metadata><data><meanElements><EPOCH>2025-10-17T04:17:49.015392</EPOCH><MEAN_MOTION>15.20756523</MEAN_MOTION><ECCENTRICITY>.0000755</ECCENTRICITY><INCLINATION>51.8868</INCLINATION><RA_OF_ASC_NODE>133.9043</RA_OF_ASC_NODE><ARG_OF_PERICENTER>347.3126</ARG_OF_PERICENTER><MEAN_ANOMALY>12.7835</MEAN_ANOMALY></meanElements><tleParameters><EPHEMERIS_TYPE>0</EPHEMERIS_TYPE><CLASSIFICATION_TYPE>U</CLASSIFICATION_TYPE><NORAD_CAT_ID>64515</NORAD_CAT_ID><ELEMENT_SET_NO>999</ELEMENT_SET_NO><REV_AT_EPOCH>1901</REV_AT_EPOCH><BSTAR>.15728E-2</BSTAR><MEAN_MOTION_DOT>.34937E-3</MEAN_MOTION_DOT><MEAN_MOTION_DDOT>0</MEAN_MOTION_DDOT></tleParameters></data></segment></body></omm>
<omm id="CCSDS_OMM_VERS" version="2.0">
<header><CREATION_DATE/><ORIGINATOR/></header><body><segment><metadata><OBJECT_NAME>KUIPER-00056</OBJECT_NAME><OBJECT_ID>2025-134S</OBJECT_ID><CENTER_NAME>EARTH</CENTER_NAME><REF_FRAME>TEME</REF_FRAME><TIME_SYSTEM>UTC</TIME_SYSTEM><MEAN_ELEMENT_THEORY>SGP4</MEAN_ELEMENT_THEORY></metadata><data><meanElements><EPOCH>2025-10-17T04:00:01.998720</EPOCH><MEAN_MOTION>14.88798693</MEAN_MOTION><ECCENTRICITY>.0002271</ECCENTRICITY><INCLINATION>51.8953</INCLINATION><RA_OF_ASC_NODE>138.9177</RA_OF_ASC_NODE><ARG_OF_PERICENTER>155.1599</ARG_OF_PERICENTER><MEAN_ANOMALY>254.1787</MEAN_ANOMALY></meanElements><tleParameters><EPHEMERIS_TYPE>0</EPHEMERIS_TYPE><CLASSIFICATION_TYPE>U</CLASSIFICATION_TYPE><NORAD_CAT_ID>64516</NORAD_CAT_ID><ELEMENT_SET_NO>999</ELEMENT_SET_NO><REV_AT_EPOCH>475</REV_AT_EPOCH><BSTAR>-.12522E+0</BSTAR><MEAN_MOTION_DOT>-.1103444E-1</MEAN_MOTION_DOT><MEAN_MOTION_DDOT>0</MEAN_MOTION_DDOT></tleParameters></data></segment></body></omm>
<omm id="CCSDS_OMM_VERS" version="2.0">
<header><CREATION_DATE/><ORIGINATOR/></header><body><segment><metadata><OBJECT_NAME>KUIPER-00057</OBJECT_NAME><OBJECT_ID>2025-134T</OBJECT_ID><CENTER_NAME>EARTH</CENTER_NAME><REF_FRAME>TEME</REF_FRAME><TIME_SYSTEM>UTC</TIME_SYSTEM><MEAN_ELEMENT_THEORY>SGP4</MEAN_ELEMENT_THEORY></metadata><data><meanElements><EPOCH>2025-10-17T04:45:01.749888</EPOCH><MEAN_MOTION>14.79950153</MEAN_MOTION><ECCENTRICITY>.000962</ECCENTRICITY><INCLINATION>51.8988</INCLINATION><RA_OF_ASC_NODE>146.1288</RA_OF_ASC_NODE><ARG_OF_PERICENTER>161.8927</ARG_OF_PERICENTER><MEAN_ANOMALY>198.2380</MEAN_ANOMALY></meanElements><tleParameters><EPHEMERIS_TYPE>0</EPHEMERIS_TYPE><CLASSIFICATION_TYPE>U</CLASSIFICATION_TYPE><NORAD_CAT_ID>64517</NORAD_CAT_ID><ELEMENT_SET_NO>999</ELEMENT_SET_NO><REV_AT_EPOCH>1884</REV_AT_EPOCH><BSTAR>.76052E-3</BSTAR><MEAN_MOTION_DOT>.5586E-4</MEAN_MOTION_DOT><MEAN_MOTION_DDOT>0</MEAN_MOTION_DDOT></tleParameters></data></segment></body></omm>
<omm id="CCSDS_OMM_VERS" version="2.0">
<header><CREATION_DATE/><ORIGINATOR/></header><body><segment><metadata><OBJECT_NAME>KUIPER-00058</OBJECT_NAME><OBJECT_ID>2025-134U</OBJECT_ID><CENTER_NAME>EARTH</CENTER_NAME><REF_FRAME>TEME</REF_FRAME><TIME_SYSTEM>UTC</TIME_SYSTEM><MEAN_ELEMENT_THEORY>SGP4</MEAN_ELEMENT_THEORY></metadata><data><meanElements><EPOCH>2025-10-17T04:00:01.998720</EPOCH><MEAN_MOTION>14.86645373</MEAN_MOTION><ECCENTRICITY>.0005274</ECCENTRICITY><INCLINATION>51.8949</INCLINATION><RA_OF_ASC_NODE>140.3019</RA_OF_ASC_NODE><ARG_OF_PERICENTER>186.5375</ARG_OF_PERICENTER><MEAN_ANOMALY>250.5064</MEAN_ANOMALY></meanElements><tleParameters><EPHEMERIS_TYPE>0</EPHEMERIS_TYPE><CLASSIFICATION_TYPE>U</CLASSIFICATION_TYPE><NORAD_CAT_ID>64518</NORAD_CAT_ID><ELEMENT_SET_NO>999</ELEMENT_SET_NO><REV_AT_EPOCH>574</REV_AT_EPOCH><BSTAR>-.52802E-2</BSTAR><MEAN_MOTION_DOT>-.47263E-3</MEAN_MOTION_DOT><MEAN_MOTION_DDOT>0</MEAN_MOTION_DDOT></tleParameters></data></segment></body></omm>
<omm id="CCSDS_OMM_VERS" version="2.0">
<header><CREATION_DATE/><ORIGINATOR/></header><body><segment><metadata><OBJECT_NAME>KUIPER-00059</OBJECT_NAME><OBJECT_ID>2025-134V</OBJECT_ID><CENTER_NAME>EARTH</CENTER_NAME><REF_FRAME>TEME</REF_FRAME><TIME_SYSTEM>UTC</TIME_SYSTEM><MEAN_ELEMENT_THEORY>SGP4</MEAN_ELEMENT_THEORY></metadata><data><meanElements><EPOCH>2025-10-17T04:00:01.998720</EPOCH><MEAN_MOTION>15.00781160</MEAN_MOTION><ECCENTRICITY>.0002595</ECCENTRICITY><INCLINATION>51.8939</INCLINATION><RA_OF_ASC_NODE>136.3245</RA_OF_ASC_NODE><ARG_OF_PERICENTER>348.6953</ARG_OF_PERICENTER><MEAN_ANOMALY>260.5911</MEAN_ANOMALY></meanElements><tleParameters><EPHEMERIS_TYPE>0</EPHEMERIS_TYPE><CLASSIFICATION_TYPE>U</CLASSIFICATION_TYPE><NORAD_CAT_ID>64519</NORAD_CAT_ID><ELEMENT_SET_NO>999</ELEMENT_SET_NO><REV_AT_EPOCH>549</REV_AT_EPOCH><BSTAR>-.9634E-1</BSTAR><MEAN_MOTION_DOT>-.1137361E-1</MEAN_MOTION_DOT><MEAN_MOTION_DDOT>0</MEAN_MOTION_DDOT></tleParameters></data></segment></body></omm>
<omm id="CCSDS_OMM_VERS" version="2.0">
<header><CREATION_DATE/><ORIGINATOR/></header><body><segment><metadata><OBJECT_NAME>KUIPER-00060</OBJECT_NAME><OBJECT_ID>2025-134W</OBJECT_ID><CENTER_NAME>EARTH</CENTER_NAME><REF_FRAME>TEME</REF_FRAME><TIME_SYSTEM>UTC</TIME_SYSTEM><MEAN_ELEMENT_THEORY>SGP4</MEAN_ELEMENT_THEORY></metadata><data><meanElements><EPOCH>2025-10-17T04:00:01.998720</EPOCH><MEAN_MOTION>14.94026587</MEAN_MOTION><ECCENTRICITY>.0001591</ECCENTRICITY><INCLINATION>51.8938</INCLINATION><RA_OF_ASC_NODE>136.7386</RA_OF_ASC_NODE><ARG_OF_PERICENTER>194.0820</ARG_OF_PERICENTER><MEAN_ANOMALY>76.0993</MEAN_ANOMALY></meanElements><tleParameters><EPHEMERIS_TYPE>0</EPHEMERIS_TYPE><CLASSIFICATION_TYPE>U</CLASSIFICATION_TYPE><NORAD_CAT_ID>64520</NORAD_CAT_ID><ELEMENT_SET_NO>999</ELEMENT_SET_NO><REV_AT_EPOCH>252</REV_AT_EPOCH><BSTAR>-.14674E+0</BSTAR><MEAN_MOTION_DOT>-.1462115E-1</MEAN_MOTION_DOT><MEAN_MOTION_DDOT>0</MEAN_MOTION_DDOT></tleParameters></data></segment></body></omm>

</ndm>
