KUIPER-00053            
1 64513U 25134P   25289.29093381  .00005283  00000+0  49311-3 0  9993
2 64513  51.8948 141.9302 0003086 176.8149 183.2840 14.95602510 18827
KUIPER-00054            
1 64514U 25134Q   25290.16668980 -.01191971  00000+0 -82453-1 0  9990
2 64514  51.8844 134.8441 0006744 174.3695 332.2553 15.08406833  2107
KUIPER-00055            
1 64515U 25134R   25290.17903953  .00034937  00000+0  15728-2 0  9991
2 64515  51.8868 133.9043 0000755 347.3126  12.7835 15.20756523 19018
KUIPER-00056            
1 64516U 25134S   25290.16668980 -.01103444  00000+0 -12522+0 0  9998
2 64516  51.8953 138.9177 0002271 155.1599 254.1787 14.88798693  4751
KUIPER-00057            
1 64517U 25134T   25290.19793692  .00005586  00000+0  76052-3 0  9998
2 64517  51.8988 146.1288 0009620 161.8927 198.2380 14.79950153 18841
KUIPER-00058            
1 64518U 25134U   25290.16668980 -.00047263  00000+0 -52802-2 0  9993
2 64518  51.8949 140.3019 0005274 186.5375 250.5064 14.86645373  5748
KUIPER-00059            
1 64519U 25134V   25290.16668980 -.01137361  00000+0 -96340-1 0  9998
2 64519  51.8939 136.3245 0002595 348.6953 260.5911 15.00781160  5496
KUIPER-00060            
1 64520U 25134W   25290.16668980 -.01462115  00000+0 -14674+0 0  9996
2 64520  51.8938 136.7386 0001591 194.0820  76.0993 14.94026587  2526
